ONEWEB-0707             
1 61612U 24188U   25074.84476542 -.00001226  00000+0 -35500-2 0  9994
2 61612  87.8833 127.6149 0001486  84.5676 275.5621 13.10375901 23294
ONEWEB-0708             
1 61613U 24188V   25075.09208406 -.00000500  00000+0 -14699-2 0  9995
2 61613  87.8896 127.5236 0001190 103.5198 256.6061 13.10379699 21578
